{"type": "FeatureCollection", "features": [ {"type": "Feature", "properties": {"norad_id": 65304, "name": "DRAGON CRS-33", "group": "stations", "lat": -16.406154237751597, "lon": -54.52461971341725, "alt_km": 419.47646500235624, "timestamp": "2025-12-18T21:31:49.726017+00:00", "meta": {"OBJECT_NAME": "DRAGON CRS-33", "OBJECT_ID": "2025-186A", "EPOCH": "2025-12-18T05:11:21.338880", "MEAN_MOTION": 15.49648163, "ECCENTRICITY": 0.00031704, "INCLINATION": 51.6313, "RA_OF_ASC_NODE": 115.3593, "ARG_OF_PERICENTER": 265.6107, "MEAN_ANOMALY": 94.4519, "EPHEMERIS_TYPE": 0, "CLASSIFICATION_TYPE": "U", "NORAD_CAT_ID": 65304, "ELEMENT_SET_NO": 999, "REV_AT_EPOCH": 11, "BSTAR": 0.00015154287, "MEAN_MOTION_DOT": 8.098e-05, "MEAN_MOTION_DDOT": 0}, "tle": {"line1": "1 65304U 25186A   25352.21621920  .00008098  00000+0  15154-3 0  9993", "line2": "2 65304  51.6313 115.3593 0003170 265.6107  94.4519 15.49648163   115"}}, "geometry": {"type": "Point", "coordinates": [-54.52461971341725, -16.406154237751597]}}, {"type": "Feature", "properties": {"norad_id": 65586, "name": "PROGRESS-MS 32", "group": "stations", "lat": -16.406154730088684, "lon": -54.52461927808762, "alt_km": 419.47646502658426, "timestamp": "2025-12-18T21:31:49.726027+00:00", "meta": {"OBJECT_NAME": "PROGRESS-MS 32", "OBJECT_ID": "2025-204A", "EPOCH": "2025-12-18T05:11:21.338880", "MEAN_MOTION": 15.49648163, "ECCENTRICITY": 0.00031704, "INCLINATION": 51.6313, "RA_OF_ASC_NODE": 115.3593, "ARG_OF_PERICENTER": 265.6107, "MEAN_ANOMALY": 94.4519, "EPHEMERIS_TYPE": 0, "CLASSIFICATION_TYPE": "U", "NORAD_CAT_ID": 65586, "ELEMENT_SET_NO": 999, "REV_AT_EPOCH": 27, "BSTAR": 0.00015154287, "MEAN_MOTION_DOT": 8.098e-05, "MEAN_MOTION_DDOT": 0}, "tle": {"line1": "1 65586U 25204A   25352.21621920  .00008098  00000+0  15154-3 0  9996", "line2": "2 65586  51.6313 115.3593 0003170 265.6107  94.4519 15.49648163   274"}}, "geometry": {"type": "Point", "coordinates": [-54.52461927808762, -16.406154730088684]}}, {"type": "Feature", "properties": {"norad_id": 65616, "name": "CYGNUS NG-23", "group": "stations", "lat": -16.406155222426364, "lon": -54.52461884275749, "alt_km": 419.476465050815, "timestamp": "2025-12-18T21:31:49.726037+00:00", "meta": {"OBJECT_NAME": "CYGNUS NG-23", "OBJECT_ID": "2025-208A", "EPOCH": "2025-12-18T05:11:21.338880", "MEAN_MOTION": 15.49648163, "ECCENTRICITY": 0.00031704, "INCLINATION": 51.6313, "RA_OF_ASC_NODE": 115.3593, "ARG_OF_PERICENTER": 265.6107, "MEAN_ANOMALY": 94.4519, "EPHEMERIS_TYPE": 0, "CLASSIFICATION_TYPE": "U", "NORAD_CAT_ID": 65616, "ELEMENT_SET_NO": 999, "REV_AT_EPOCH": 22, "BSTAR": 0.00015154287, "MEAN_MOTION_DOT": 8.098e-05, "MEAN_MOTION_DDOT": 0}, "tle": {"line1": "1 65616U 25208A   25352.21621920  .00008098  00000+0  15154-3 0  9994", "line2": "2 65616  51.6313 115.3593 0003170 265.6107  94.4519 15.49648163   223"}}, "geometry": {"type": "Point", "coordinates": [-54.52461884275749, -16.406155222426364]}}, {"type": "Feature", "properties": {"norad_id": 65729, "name": "DRAGONFLY", "group": "stations", "lat": -17.169239473906458, "lon": 90.00857040095966, "alt_km": 345.91580311541475, "timestamp": "2025-12-18T21:31:49.726050+00:00", "meta": {"OBJECT_NAME": "DRAGONFLY", "OBJECT_ID": "1998-067XH", "EPOCH": "2025-12-17T13:37:12.344736", "MEAN_MOTION": 15.73531298, "ECCENTRICITY": 0.00072061, "INCLINATION": 51.6243, "RA_OF_ASC_NODE": 111.0116, "ARG_OF_PERICENTER": 308.514, "MEAN_ANOMALY": 51.5212, "EPHEMERIS_TYPE": 0, "CLASSIFICATION_TYPE": "U", "NORAD_CAT_ID": 65729, "ELEMENT_SET_NO": 999, "REV_AT_EPOCH": 1392, "BSTAR": 0.0011077639, "MEAN_MOTION_DOT": 0.00160588, "MEAN_MOTION_DDOT": 0}, "tle": {"line1": "1 65729U 98067XH  25351.56750399  .00160588  00000+0  11078-2 0  9995", "line2": "2 65729  51.6243 111.0116 0007206 308.5140  51.5212 15.73531298 13924"}}, "geometry": {"type": "Point", "coordinates": [90.00857040095966, -17.169239473906458]}}, {"type": "Feature", "properties": {"norad_id": 65731, "name": "1998-067XK", "group": "stations", "lat": -26.670412210280443, "lon": -50.585580036822385, "alt_km": 370.0190231375964, "timestamp": "2025-12-18T21:31:49.726061+00:00", "meta": {"OBJECT_NAME": "1998-067XK", "OBJECT_ID": "1998-067XK", "EPOCH": "2025-12-17T14:00:04.713696", "MEAN_MOTION": 15.66666293, "ECCENTRICITY": 0.00047593, "INCLINATION": 51.6289, "RA_OF_ASC_NODE": 112.64, "ARG_OF_PERICENTER": 277.2608, "MEAN_ANOMALY": 82.7846, "EPHEMERIS_TYPE": 0, "CLASSIFICATION_TYPE": "U", "NORAD_CAT_ID": 65731, "ELEMENT_SET_NO": 999, "REV_AT_EPOCH": 1390, "BSTAR": 0.00079228691, "MEAN_MOTION_DOT": 0.00085225, "MEAN_MOTION_DDOT": 0}, "tle": {"line1": "1 65731U 98067XK  25351.58338789  .00085225  00000+0  79229-3 0  9992", "line2": "2 65731  51.6289 112.6400 0004759 277.2608  82.7846 15.66666293 13904"}}, "geometry": {"type": "Point", "coordinates": [-50.585580036822385, -26.670412210280443]}}, {"type": "Feature", "properties": {"norad_id": 65732, "name": "RSP-03", "group": "stations", "lat": -49.38979881541268, "lon": -7.337921944281774, "alt_km": 359.8504219196984, "timestamp": "2025-12-18T21:31:49.726071+00:00", "meta": {"OBJECT_NAME": "RSP-03", "OBJECT_ID": "1998-067XL", "EPOCH": "2025-12-17T13:53:35.595744", "MEAN_MOTION": 15.69845633, "ECCENTRICITY": 0.0005617, "INCLINATION": 51.6262, "RA_OF_ASC_NODE": 111.8477, "ARG_OF_PERICENTER": 283.4279, "MEAN_ANOMALY": 76.6092, "EPHEMERIS_TYPE": 0, "CLASSIFICATION_TYPE": "U", "NORAD_CAT_ID": 65732, "ELEMENT_SET_NO": 999, "REV_AT_EPOCH": 1392, "BSTAR": 0.00093703449, "MEAN_MOTION_DOT": 0.00115432, "MEAN_MOTION_DDOT": 0}, "tle": {"line1": "1 65732U 98067XL  25351.57888421  .00115432  00000+0  93703-3 0  9992", "line2": "2 65732  51.6262 111.8477 0005617 283.4279  76.6092 15.69845633 13925"}}, "geometry": {"type": "Point", "coordinates": [-7.337921944281774, -49.38979881541268]}}, {"type": "Feature", "properties": {"norad_id": 65733, "name": "GHS-01", "group": "stations", "lat": -27.827291306716937, "lon": 78.74445864728308, "alt_km": 335.94689078051306, "timestamp": "2025-12-18T21:31:49.726081+00:00", "meta": {"OBJECT_NAME": "GHS-01", "OBJECT_ID": "1998-067XM", "EPOCH": "2025-12-17T18:18:48.824640", "MEAN_MOTION": 15.77001027, "ECCENTRICITY": 0.00078519, "INCLINATION": 51.6274, "RA_OF_ASC_NODE": 109.3249, "ARG_OF_PERICENTER": 313.5973, "MEAN_ANOMALY": 46.4375, "EPHEMERIS_TYPE": 0, "CLASSIFICATION_TYPE": "U", "NORAD_CAT_ID": 65733, "ELEMENT_SET_NO": 999, "REV_AT_EPOCH": 1397, "BSTAR": 0.0012359693, "MEAN_MOTION_DOT": 0.00209888, "MEAN_MOTION_DDOT": 0}, "tle": {"line1": "1 65733U 98067XM  25351.76306510  .00209888  00000+0  12360-2 0  9996", "line2": "2 65733  51.6274 109.3249 0007851 313.5973  46.4375 15.77001027 13970"}}, "geometry": {"type": "Point", "coordinates": [78.74445864728308, -27.827291306716937]}}, {"type": "Feature", "properties": {"norad_id": 65941, "name": "YOTSUBA-KULOVER", "group": "stations", "lat": -9.815780150621103, "lon": -63.111462529841894, "alt_km": 389.3424148817576, "timestamp": "2025-12-18T21:31:49.726094+00:00", "meta": {"OBJECT_NAME": "YOTSUBA-KULOVER", "OBJECT_ID": "1998-067XN", "EPOCH": "2025-12-18T06:52:26.759712", "MEAN_MOTION": 15.60190722, "ECCENTRICITY": 0.00016464, "INCLINATION": 51.6284, "RA_OF_ASC_NODE": 112.0835, "ARG_OF_PERICENTER": 310.7967, "MEAN_ANOMALY": 49.2884, "EPHEMERIS_TYPE": 0, "CLASSIFICATION_TYPE": "U", "NORAD_CAT_ID": 65941, "ELEMENT_SET_NO": 999, "REV_AT_EPOCH": 1072, "BSTAR": 0.00083849398, "MEAN_MOTION_DOT": 0.0006971, "MEAN_MOTION_DDOT": 0}, "tle": {"line1": "1 65941U 98067XN  25352.28642083  .00069710  00000+0  83849-3 0  9992", "line2": "2 65941  51.6284 112.0835 0001646 310.7967  49.2884 15.60190722 10721"}}, "geometry": {"type": "Point", "coordinates": [-63.111462529841894, -9.815780150621103]}}, {"type": "Feature", "properties": {"norad_id": 65942, "name": "BOTAN", "group": "stations", "lat": -43.95098611622395, "lon": -22.03809009979358, "alt_km": 378.693502497531, "timestamp": "2025-12-18T21:31:49.726105+00:00", "meta": {"OBJECT_NAME": "BOTAN", "OBJECT_ID": "1998-067XP", "EPOCH": "2025-12-18T06:41:53.060640", "MEAN_MOTION": 15.64025211, "ECCENTRICITY": 0.0002845, "INCLINATION": 51.6279, "RA_OF_ASC_NODE": 111.2842, "ARG_OF_PERICENTER": 286.3286, "MEAN_ANOMALY": 73.7396, "EPHEMERIS_TYPE": 0, "CLASSIFICATION_TYPE": "U", "NORAD_CAT_ID": 65942, "ELEMENT_SET_NO": 999, "REV_AT_EPOCH": 1073, "BSTAR": 0.0011338772, "MEAN_MOTION_DOT": 0.00110248, "MEAN_MOTION_DDOT": 0}, "tle": {"line1": "1 65942U 98067XP  25352.27908635  .00110248  00000+0  11339-2 0  9997", "line2": "2 65942  51.6279 111.2842 0002845 286.3286  73.7396 15.64025211 10734"}}, "geometry": {"type": "Point", "coordinates": [-22.03809009979358, -43.95098611622395]}}, {"type": "Feature", "properties": {"norad_id": 65943, "name": "E-KAGAKU-1", "group": "stations", "lat": -9.345584110142978, "lon": -63.49460059484875, "alt_km": 388.22778016215307, "timestamp": "2025-12-18T21:31:49.726115+00:00", "meta": {"OBJECT_NAME": "E-KAGAKU-1", "OBJECT_ID": "1998-067XQ", "EPOCH": "2025-12-17T17:02:27.271104", "MEAN_MOTION": 15.60109171, "ECCENTRICITY": 0.0001423, "INCLINATION": 51.6296, "RA_OF_ASC_NODE": 114.9884, "ARG_OF_PERICENTER": 240.8217, "MEAN_ANOMALY": 119.2634, "EPHEMERIS_TYPE": 0, "CLASSIFICATION_TYPE": "U", "NORAD_CAT_ID": 65943, "ELEMENT_SET_NO": 999, "REV_AT_EPOCH": 1063, "BSTAR": 0.0007379067, "MEAN_MOTION_DOT": 0.00061026, "MEAN_MOTION_DDOT": 0}, "tle": {"line1": "1 65943U 98067XQ  25351.71003786  .00061026  00000+0  73791-3 0  9999", "line2": "2 65943  51.6296 114.9884 0001423 240.8217 119.2634 15.60109171 10634"}}, "geometry": {"type": "Point", "coordinates": [-63.49460059484875, -9.345584110142978]}}]}